QIANFAN-97              
1 66039U 25233G   25365.14592215  .00000054  00000+0  57329-4 0  9997
2 66039  88.9943  60.2301 0015179 358.0627   2.0467 13.57890281 10490
QIANFAN-98              
1 66040U 25233H   25365.16762968  .00000268  00000+0  23529-3 0  9996
2 66040  88.9936  60.1046 0014029 350.9817   9.1097 13.82582245 10565
QIANFAN-99              
1 66041U 25233J   25365.17121795  .00000039  00000+0  37228-4 0  9993
2 66041  88.9944  60.2335 0014400 351.6233   8.4680 13.57808595 10493
QIANFAN-100             
1 66042U 25233K   25364.44280791  .00000022  00000+0  11020-4 0  9999
2 66042  88.9954  60.2205 0014684 357.5067   2.6017 13.66940209 10449
QIANFAN-101             
1 66043U 25233L   25365.11239421  .00000380  00000+0  15115-3 0  9994
2 66043  88.9943  59.9126 0013792 343.6550  16.4197 14.26687050 10662
QIANFAN-102             
1 66044U 25233M   25365.11499149  .00000204  00000+0  23048-3 0  9999
2 66044  88.9942  60.2074 0014210 353.0593   7.0368 13.66801374 10506
QIANFAN-103             
1 66045U 25233N   25365.17148700  .00000020  00000+0  10928-4 0  9990
2 66045  88.9944  60.2335 0014004 354.3262   5.7732 13.57795813 10495
QIANFAN-104             
1 66046U 25233P   25365.17884803  .00000215  00000+0  22428-3 0  9995
2 66046  88.9946  60.1999 0013659 356.6144   3.4924 13.71546522 10510
